{"type": "FeatureCollection", "features": [ {"type": "Feature", "properties": {"norad_id": 64902, "name": "CO3D 2", "group": "resource", "lat": 66.52206088753094, "lon": 57.012422753984815, "alt_km": 498.1945964922388, "timestamp": "2025-12-24T09:46:30.653539+00:00", "meta": {"OBJECT_NAME": "CO3D 2", "OBJECT_ID": "2025-156D", "EPOCH": "2025-12-24T04:44:21.966144", "MEAN_MOTION": 15.20212844, "ECCENTRICITY": 7.78e-05, "INCLINATION": 97.4337, "RA_OF_ASC_NODE": 74.2992, "ARG_OF_PERICENTER": 68.7706, "MEAN_ANOMALY": 291.3612, "EPHEMERIS_TYPE": 0, "CLASSIFICATION_TYPE": "U", "NORAD_CAT_ID": 64902, "ELEMENT_SET_NO": 999, "REV_AT_EPOCH": 2294, "BSTAR": 0.00030058, "MEAN_MOTION_DOT": 6.447e-05, "MEAN_MOTION_DDOT": 0}, "tle": {"line1": "1 64902U 25156D   25358.19747646  .00006447  00000+0  30058-3 0  9996", "line2": "2 64902  97.4337  74.2992 0000778  68.7706 291.3612 15.20212844 22945"}}, "geometry": {"type": "Point", "coordinates": [57.012422753984815, 66.52206088753094]}}, {"type": "Feature", "properties": {"norad_id": 64903, "name": "CO3D 1", "group": "resource", "lat": 65.72138158763674, "lon": 57.67994034674144, "alt_km": 498.2124258825861, "timestamp": "2025-12-24T09:46:30.653549+00:00", "meta": {"OBJECT_NAME": "CO3D 1", "OBJECT_ID": "2025-156E", "EPOCH": "2025-12-24T04:44:35.257056", "MEAN_MOTION": 15.2021003, "ECCENTRICITY": 8.85e-05, "INCLINATION": 97.4338, "RA_OF_ASC_NODE": 74.2992, "ARG_OF_PERICENTER": 76.7882, "MEAN_ANOMALY": 283.3451, "EPHEMERIS_TYPE": 0, "CLASSIFICATION_TYPE": "U", "NORAD_CAT_ID": 64903, "ELEMENT_SET_NO": 999, "REV_AT_EPOCH": 2294, "BSTAR": 0.00030602, "MEAN_MOTION_DOT": 6.564e-05, "MEAN_MOTION_DDOT": 0}, "tle": {"line1": "1 64903U 25156E   25358.19763029  .00006564  00000+0  30602-3 0  9995", "line2": "2 64903  97.4338  74.2992 0000885  76.7882 283.3451 15.20210030 22947"}}, "geometry": {"type": "Point", "coordinates": [57.67994034674144, 65.72138158763674]}}, {"type": "Feature", "properties": {"norad_id": 66514, "name": "SENTINEL-6B", "group": "resource", "lat": -62.17343720866897, "lon": 15.595478025332028, "alt_km": 1338.1261298426598, "timestamp": "2025-12-24T09:46:30.653559+00:00", "meta": {"OBJECT_NAME": "SENTINEL-6B", "OBJECT_ID": "2025-264A", "EPOCH": "2025-12-23T02:27:52.423776", "MEAN_MOTION": 12.8092954, "ECCENTRICITY": 0.00078893, "INCLINATION": 66.0396, "RA_OF_ASC_NODE": 140.9099, "ARG_OF_PERICENTER": 269.9741, "MEAN_ANOMALY": 90.037, "EPHEMERIS_TYPE": 0, "CLASSIFICATION_TYPE": "U", "NORAD_CAT_ID": 66514, "ELEMENT_SET_NO": 999, "REV_AT_EPOCH": 461, "BSTAR": -1.0381303e-05, "MEAN_MOTION_DOT": -6.3e-07, "MEAN_MOTION_DDOT": 0}, "tle": {"line1": "1 66514U 25264A   25357.10269009 -.00000063  00000+0 -10381-4 0  9997", "line2": "2 66514  66.0396 140.9099 0007889 269.9741  90.0370 12.80929540  4616"}}, "geometry": {"type": "Point", "coordinates": [15.595478025332028, -62.17343720866897]}}]}